#dP2021  3 26  0  0  0.00000000      97 __u+U IGS14 FIT  IAC
## 2150 432000.00000000   900.00000000 59299 0.0000000000000
+  123   C01C03C04C05C06C07C08C09C10C11C12C13C14C16C19C20C21
+        C22C23C24C25C26C27C28C29C30C32C33C34C35C36C37C38C39
+        C40C41C42C43C44C45C46C60E01E02E03E04E05E07E08E09E11
+        E12E13E14E15E18E19E21E24E25E26E27E30E31E33E36G01G02
+        G03G04G05G06G07G08G09G10G11G12G13G14G15G16G17G18G19
+        G20G21G22G23G24G25G26G27G28G29G30G31G32J01J02J03J07
+        R01R02R03R04R05R07R08R09R11R12R13R14R15R16R17R18R19
+        R20R21R22R24  0  0  0  0  0  0  0  0  0  0  0  0  0
++        13 13 13 13 10  9  9  9  9  9  8  8  8  9  7  7  7
++         7  7  7  7  7  7  7  7  7  7  7  7  7  7  7  8  8
++         8  8  7  8  7  7  7  0  4  4  4  4  4  4  4  4  4
++         4  4  4  5  4  4  4  4  4  4  4  5  4  4  4  3  3
++         3  3  3  3  3  3  3  3  4  3  4  3  4  3  3  3  3
++         3  4  3  3  3  3  3  4  3  3  3  3  3  8  8  8 13
++         7  5  6  6  5  5  5  5  7  6  7  5  5  7  5  5  7
++         7  5  8  5  0  0  0  0  0  0  0  0  0  0  0  0  0
%c M  cc GPS ccc cccc cccc cccc cccc ccccc ccccc ccccc ccccc
%c cc cc ccc ccc cccc cccc cccc cccc ccccc ccccc ccccc ccccc
%f  1.2500000  1.025000000  0.00000000000  0.000000000000000
%f  0.0000000  0.000000000  0.00000000000  0.000000000000000
%i    0    0    0    0      0      0      0      0         0
%i    0    0    0    0      0      0      0      0         0
/* INFORMATION & ANALYSIS CENTER (IAC)            FINAL DATA
/* S/V CLOCKS ARE ALIGNED TO GNSS TIME                      
/* G:C1WC2W R:C1PC2P E:C1XC5X C:C2IC6I J:C1CC2S             
/* PCV:IGS14_2134 OL/AL:FES2004  NONE     YN ORB:CoN CLK:CoN
*  2021 03 26 10  0  0.00000000
PC01 -34297.631236  24525.798610     95.096332   -620.186128
PC03 -14793.120078  39442.014855    362.953004   -457.448084
PC04 -39592.780263  14495.288945    703.009421     13.573282
PC05  21790.558260  36052.717805   -553.169726     42.558687
PC06 -12575.974468  21004.776551 -33882.412429    214.209269
PC07 -23894.692169  32219.846720  12353.961048    -55.626419
PC08  -9043.795848  35687.175524  20995.894576   -896.882461
PC09   3675.096584  27503.430536 -31334.444618    641.481652
PC10 -10926.295352  33319.436541  23306.569719    -65.971733
PC11   3428.990337  18647.354318  20549.758090   -846.610350
PC12 -14518.552984   8053.190909  22462.434827    893.888271
PC13   -305.413512  41572.359680   7865.213429    195.747058
PC14  -7445.562201  18818.611750 -19159.213042    305.769977
PC16  -7649.124242  22943.035249 -34409.006392   -752.260693
PC19  -3111.135337 -16035.098558  22659.051742    775.485946
PC20  15451.193891 -18711.250443  13828.934815   -938.047358
PC21 -25679.880500  10231.478901   3756.841866   -905.639931
PC22 -20411.016373  -4019.930027  18594.580156   -933.504572
PC23  13957.350298  12723.932243  20543.276316   -880.529835
PC24  -8718.539490  24523.485694 -10115.261209   -793.835544
PC25   4829.641680  26294.160059   8033.806471   -942.513352
PC26 -15453.506623   9600.278195 -21179.164138    930.039022
PC27  21419.307944   -450.780007 -17887.027323    504.913118
PC28  23932.137298  14160.233243  -2346.331161    -93.896293
PC29 -13149.073211 -19914.237585 -14479.342261    370.152235
PC30   6327.705279 -14688.389684 -22873.512115    455.335415
PC32  25605.909273 -10468.142103  -3700.437356   -921.980374
PC33   3151.038401  16045.484503 -22600.047748   -944.227054
PC34  -5713.614604  15070.969709  22770.874356   -710.376881
PC35 -24349.525717 -13524.280017   2033.482225   -356.927612
PC36  -3981.562243 -26516.226907  -7708.152431   -737.476655
PC37  15815.105234  -8224.614449  21477.797870   -883.040938
PC38  -7724.365382  37714.182646  17360.404125    138.216212
PC39  -4991.412179  23816.672936 -34419.476243     29.727823
PC40 -17553.542767  29547.396486  24342.824748    144.774048
PC41  20269.357556   4146.086554 -18672.124745   -935.548535
PC42 -16045.778300  18597.894118 -13182.120146   -934.749208
PC43  12555.063034  20042.434184  14785.211814   -656.698473
PC44 -21598.334108   1027.951915  17655.485346    105.237266
PC45 -13910.985078 -12573.478350 -20660.983657    396.849397
PC46   8086.904108 -24998.108789   9350.742666    345.499209
PC60      0.000000      0.000000      0.000000 999999.999999
PE01  20634.630680 -12375.293657  17230.193188  -1073.553376
PE02 -20647.136386  12501.101885 -17153.384854    207.684724
PE03 -28421.760093   4752.690650  -6737.354182   -413.096197
PE04  14517.051424 -14896.263292  21068.634993   -736.853146
PE05 -25850.767876  -8337.501621  11767.397186   -293.968544
PE07   8243.180639  16418.428931 -23202.732014   -517.592184
PE08 -14111.865091  14940.976348 -21294.589592   6027.393397
PE09  -8479.393058 -16215.921235  23269.764238   5722.140049
PE11 -11024.422292 -26770.753429  -6223.246519   6164.502331
PE12   4843.693923 -19648.750905 -21606.325983   5291.387171
PE13  10821.961097  26729.458614   6658.078092    414.103934
PE14  12555.612619 -17437.338134 -24447.789936  -1374.942294
PE15  -4725.412275  19623.394681  21657.122027    822.724796
PE18  -4881.253831  14138.300058  18131.943860  -1503.761179
PE19  29051.089775  -3238.394377   4660.327554    236.341026
PE21  14809.003167   7409.842967  24528.375022   -655.746962
PE24    427.659553 -23977.934915 -17349.379068   -813.071376
PE25 -14710.760209  -7591.663120 -24537.680009   -529.388537
PE26  20086.853294  17548.204969 -12822.950157   1998.118614
PE27    210.170110  23628.447130  17833.571810      2.367373
PE30 -15040.933776  25505.133272   -146.606519   3076.349325
PE31  14410.113374 -25842.447587   -700.640995   -479.538878
PE33  17448.368419   -999.190743 -23878.127589   -466.902221
PE36 -19986.705856 -18083.086968  12259.256926   -185.086604
PG01 -15295.750689   -841.772143  21496.314434    732.234130
PG02  13769.824850  21563.533952  -6387.200966   -589.765912
PG03 -20763.753348   9379.703978  13478.123054   -118.771367
PG04 -25451.335687   -639.694068  -7663.766085   -188.386034
PG05  13927.226736   7154.626966 -21622.539770    -37.282537
PG06   5393.144081  25614.068873   4381.614955      2.972800
PG07  -9872.915195  14510.236263 -19444.658832    102.180843
PG08 -26184.899889  -5328.761921   -551.661476    -15.157832
PG09 -19335.720526   8154.169877 -16351.164963   -334.124367
PG10   8961.310458 -22093.867230  11534.620323    -88.897740
PG11 -20725.508494  -3211.447465  15645.663967     11.775298
PG12  20529.262517  -5081.262983  15721.398636    -19.255847
PG13  21523.169156  13441.669977  -8196.699567    112.307747
PG14 -10956.472339  21798.117299  10468.983477     99.277422
PG15  26594.448128   2903.918479   -693.659555   -160.540909
PG16 -10790.512307 -10491.324637 -22133.843274   -299.844736
PG17  -2411.497689  14786.286677  22359.088776    415.968383
PG18   7485.562692 -17972.558613 -18045.467262    351.198730
PG19   7024.391012  16066.622181  19696.532077    -21.343182
PG20  17440.041962 -19019.270179  -5540.445579    523.822318
PG21 -17804.551246  -8355.362915  18783.145512    106.120342
PG22 -18319.346169    820.567807  19349.743890   -652.238024
PG23  16603.600196 -20678.790436    950.027041    116.367614
PG24  17547.425793   6132.602923  18865.911118      0.585553
PG25  19615.314222 -16906.708446   4935.370481    106.269203
PG26  -3063.408893 -18175.779499 -19085.985669     63.384913
PG27 -20551.765938 -12440.665474 -11894.964002   -101.086234
PG28  -9401.710112  21307.008012  13500.015045    596.452991
PG29  19252.694600  -6418.585186 -17201.179357   -318.722300
PG30  -1292.377118  23945.744243 -11116.652034   -403.893945
PG31  -6772.482495 -25383.320892   1271.187875   -107.849643
PG32   -323.597966 -15579.330695  21626.796969     21.723840
PJ01 -35359.427553  18845.995478  -8533.222598   -358.586068
PJ02 -24924.136503  31859.499034  -7427.102093      4.100576
PJ03 -27327.707919  21684.934031  28739.343448     -2.305698
PJ07 -25370.758198  33679.707087    -53.897876      0.011599
PR01 -20488.733368  -1173.166396  15144.695172     76.935684
PR02 -23306.260506   9152.754896  -4983.440735    472.300172
PR03 -10746.307615  12724.211576 -19293.661967     33.071473
PR04   7668.859446   8820.906835 -22641.056667     79.562036
PR05  21762.320473    176.011041 -13272.954962     68.827798
PR07   9987.830770 -12712.634455  19755.957434    -42.563324
PR08  -7782.389096  -8938.822733  22647.761646    -58.167541
PR09  11994.151315 -14753.574997  17053.306648    -15.242731
PR11  -2584.045525 -20559.704736 -14875.199352      1.922263
PR12 -10283.560067  -4066.641782 -22964.470220    215.664865
PR13 -11829.484869  14244.890784 -17566.784626    -52.532124
PR14  -6456.196424  24638.966415  -1268.882748     62.430943
PR15   2587.547651  20337.988246  15193.875927    104.712824
PR16  10756.500725   2985.682435  22910.139798    -13.006642
PR17   1131.567511  14354.015627  21073.807409    411.111133
PR18  14136.055839  19261.310349   8867.251622     71.060039
PR19  19286.532492  14960.568951  -7400.724232   -137.248668
PR20  13254.634510   -263.199610 -21772.136899    -46.040264
PR21  -2125.070152 -14927.272934 -20567.705455   -197.163211
PR22 -14776.709283 -19353.403595  -7786.254371   -104.578704
PR24 -13138.525880   1363.018134  21838.239444     36.439308
EOF
